{
  "building_1": {
    "name_th": "อาคารเฉลิมพระเกียรติจุฬาภรณ์",
    "name_en": "Chulabhorn Building",
    "photo_path": "images/b1.jpg",
    "lat": 15.7814,
    "lng": 104.1609,
    "description": "อาคารผู้ป่วยนอกและศูนย์เชี่ยวชาญ",
    "departments": [
      { "name_th": "ประชาสัมพันธ์", "name_en": "Information", "floor": 1, "keywords": ["ติดต่อ", "สอบถาม"] },
      { "name_th": "คลินิกเฉพาะทางอายุรกรรม", "name_en": "Medicine Clinic", "floor": 2, "keywords": ["โรคไต", "อายุรกรรม"] }
    ]
  },
  "building_2": {
    "name_th": "อาคาร 2 สุจิโต",
    "name_en": "Sujito Building",
    "photo_path": "images/b2.jpg",
    "lat": 15.7815,
    "lng": 104.1610,
    "description": "ศูนย์เอ็กซเรย์และแพทย์แผนไทย",
    "departments": [
      { "name_th": "ห้องเอ็กซเรย์", "floor": 1, "keywords": ["x-ray", "ฉายแสง"] },
      { "name_th": "แพทย์แผนไทย", "floor": 2, "keywords": ["นวด", "สมุนไพร"] }
    ]
  },
  "building_3": {
    "name_th": "อาคาร 3",
    "name_en": "Building 3",
    "photo_path": "images/b3.jpg",
    "lat": 15.7816,
    "lng": 104.1611,
    "description": "หน่วยงานสนับสนุน",
    "departments": [
      { "name_th": "ห้องแล็บ", "floor": 1, "keywords": ["เจาะเลือด", "ตรวจเลือด"] }
    ]
  },
  "building_4": {
    "name_th": "อาคาร 4",
    "name_en": "Building 4",
    "photo_path": "images/b4.jpg",
    "lat": 15.7817,
    "lng": 104.1612,
    "description": "หอผู้ป่วยใน",
    "departments": [
      { "name_th": "หอผู้ป่วยสามัญ", "floor": 1, "keywords": ["พักฟื้น"] }
    ]
  },
  "building_5": {
    "name_th": "อาคาร 5",
    "name_en": "Building 5",
    "photo_path": "images/b5.jpg",
    "lat": 15.7820,
    "lng": 104.1618,
    "description": "เจาะเลือด,สุขใจ",
    "departments": [
      { "name_th": "ห้องเจาะเลือด", "floor": 1, "keywords": ["เลือด","เจาะเลือด","สุขใจ"] }
    ]
  },
  "building_6": {
    "name_th": "อาคาร 9",
    "name_en": "Building 9",
    "photo_path": "images/b6.jpg",
    "lat": 15.7818,
    "lng": 104.1613,
    "description": "อาคารบริการนิวเคลียร์",
    "departments": [
      { "name_th": "แผนกรังสี", "floor": 1, "keywords": ["รังสี"] }
    ]
  },
  "building_8": {
    "name_th": "อาคาร 8",
    "name_en": "Building 8",
    "photo_path": "images/b8.jpg",
    "lat": 15.7823,
    "lng": 104.1620,
    "description": "อาคารผ่าตัด",
    "departments": [
      { "name_th": "ห้องคลอด", "floor": 1, "keywords": ["ห้องคลอด"] },
      { "name_th": "หอผู้ป่วยสุขใจ 2", "floor": 2, "keywords": ["สุขใจ2","สุขใจ 2"] },
      { "name_th": "ห้องผ่าตัด", "floor": 3, "keywords": ["ผ่าตัด","ห้องผ่าตัด"] }
    ]
  },
  "building_10": {
    "name_th": "อาคาร 10",
    "name_en": "Building 10",
    "photo_path": "images/b8.jpg",
    "lat": 15.7826,
    "lng": 104.1625,
    "description": "อาคาร 10",
    "departments": [
      { "name_th": "ICU เด็ก", "floor": 1, "keywords": ["ICU เด็ก","เด็กแรกเกิดป่วย"] },
      { "name_th": "หอผู้ป่วยสูติกรรม", "floor": 2, "keywords": ["สูติกรรม","หลังคลอด"] },
      { "name_th": "หอผู้ป่วยกระดูก", "floor": 4, "keywords": ["กระดูก","ออโธ"] }
    ]
  }
}